{
  "isPotentiallyHazardousAsteroid": false,
  "link": {
    "href": "http://www.neowsapp.com/rest/v1/neo/3724245"
  },
  "neo_reference_id": "3724245",
  "name": "(2015 OQ21)",
  "nasa_jpl_url": "http://ssd.jpl.nasa.gov/sbdb.cgi?sstr=3724245",
  "absolute_magnitude_h": 27.819,
  "estimated_diameter": {
    "kilometers": {
      "estimated_diameter_min": 0.007256964132794714,
      "estimated_diameter_max": 0.016227065111206793
    },
    "meters": {
      "estimated_diameter_min": 7.256964132794714,
      "estimated_diameter_max": 16.22706511120679
    },
    "miles": {
      "estimated_diameter_min": 0.004509267060158784,
      "estimated_diameter_max": 0.010083027675215676
    },
    "feet": {
      "estimated_diameter_min": 23.80893820543821,
      "estimated_diameter_max": 53.238404299451695
    }
  },
  "close_approach_data": [
    {
      "close_approach_date": "1953-11-14",
      "epoch_date_close_approach": -509040000000,
      "relative_velocity": {
        "kms": "6.57260631740581",
        "kph": "23,661.383",
        "mph": "14,702.263"
      },
      "miss_distance": {
        "astronomical": "0.13708621675901",
        "lunar": "53.327",
        "kilometers": "20,507,806",
        "miles": "12,742,960"
      },
      "orbiting_body": "Venus"
    },
    {
      "close_approach_date": "1957-06-06",
      "epoch_date_close_approach": -396723600000,
      "relative_velocity": {
        "kms": "21.8686904059562",
        "kph": "78,727.285",
        "mph": "48,918.074"
      },
      "miss_distance": {
        "astronomical": "0.438851530720436",
        "lunar": "170.713",
        "kilometers": "65,651,256",
        "miles": "40,793,800"
      },
      "orbiting_body": "Earth"
    }
  ],
  "orbital_data": {
    "orbit_id": "5",
    "orbit_determination_date": "2015-07-27 06:17:35",
    "orbit_uncertainty": "5",
    "minimum_orbit_intersection": ".00201465",
    "jupiter_tisserand_invariant": "7.350",
    "epoch_osculation": "2457000.5",
    "eccentricity": ".3683826990903955",
    "semi_major_axis": ".7850454277210355",
    "inclination": "1.327850654502157",
    "ascending_node_longitude": "126.3408424592911",
    "orbital_period": "254.0625247837503",
    "perihelion_distance": ".4958482741485864",
    "perihelion_argument": "328.9968684625534",
    "aphelion_distance": "1.074242581293485",
    "perihelion_time": "2457066.003680954663",
    "mean_anomaly": "267.1829851185241",
    "mean_motion": "1.416974031516141",
    "equinox": "J2000"
  }
}
